ALOS-2                  
1 39766U 14029A   26090.56416287  .00002837  00000+0  38673-3 0  9992
2 39766  97.9195 188.8435 0001963 103.3959 256.7472 14.79461272640106
YAOGAN-29               
1 41038U 15069A   26090.58780675  .00000903  00000+0  11775-3 0  9995
2 41038  98.0113 119.0732 0000263 358.8607   1.2606 14.83021234559126
ASTRO-H (HITOMI)        
1 41337U 16012A   26090.51306621  .00004234  00000+0  24739-3 0  9999
2 41337  30.9993 215.7004 0009635 191.3983 168.6437 15.10144744555538
HXMT (HUIYAN)           
1 42758U 17034A   26090.49720461  .00006905  00000+0  34319-3 0  9993
2 42758  43.0133 255.4062 0031503  10.1677 349.9803 15.17739651485851
SAOCOM 1A               
1 43641U 18076A   26090.63391024  .00000810  00000+0  10830-3 0  9998
2 43641  97.8900 278.4970 0001478  85.5063 274.6319 14.82166034404619
H-2A R/B                
1 43682U 18084L   26090.34437108  .00024530  00000+0  56596-3 0  9998
2 43682  98.8701 312.3741 0023581 309.5031  50.4126 15.42280553409117
SAOCOM 1B               
1 46265U 20059A   26090.59764875  .00000450  00000+0  63113-4 0  9993
2 46265  97.8887 277.5582 0001458  87.2156 272.9224 14.82158772301990
CSS (TIANHE)            
1 48274U 21035A   26090.40103076  .00027868  00000+0  31584-3 0  9998
2 48274  41.4667  75.9454 0003702  78.2668 281.8587 15.61753153281005
COSMOS 2550             
1 48865U 21056A   26087.49272868 -.00000186  00000+0  18968-6 0  9997
2 48865  67.1421 344.0047 0008440 269.5686  90.4502 15.33828274266348
CZ-2C R/B               
1 52794U 22058K   26090.48907358  .00044842  00000+0  61341-3 0  9994
2 52794  50.1881 206.0166 0041364 294.3571  65.3085 15.55902666213527
CZ-2C R/B               
1 54039U 22132E   26090.46139565  .00046960  00000+0  49555-3 0  9992
2 54039  97.2949  94.4728 0016961  19.5849 340.6058 15.63914432193777
GSLV R/B                
1 54149U 22138AN  26090.44784154  .00003580  00000+0  30773-3 0  9991
2 54149  87.3858 159.0779 0023959  75.0766 285.3116 14.96911590187187
