CCSDS_OMM_VERS = 2.0
CREATION_DATE  = 
ORIGINATOR     = 

OBJECT_NAME    = ALOS-2
OBJECT_ID      = 2014-029A
CENTER_NAME    = EARTH
REF_FRAME      = TEME
TIME_SYSTEM    = UTC
MEAN_ELEMENT_THEORY = SGP/SGP4

EPOCH          = 2026-03-31T13:32:23.671968
MEAN_MOTION    = 14.79461272
ECCENTRICITY   = .00019634
INCLINATION    = 97.9195
RA_OF_ASC_NODE = 188.8435
ARG_OF_PERICENTER = 103.3959
MEAN_ANOMALY   = 256.7472

EPHEMERIS_TYPE = 0
CLASSIFICATION_TYPE = U
NORAD_CAT_ID   = 39766
ELEMENT_SET_NO = 999
REV_AT_EPOCH   = 64010
BSTAR          = .3867318E-3
MEAN_MOTION_DOT = .2837E-4
MEAN_MOTION_DDOT = 0

CCSDS_OMM_VERS = 2.0
CREATION_DATE  = 
ORIGINATOR     = 

OBJECT_NAME    = YAOGAN-29
OBJECT_ID      = 2015-069A
CENTER_NAME    = EARTH
REF_FRAME      = TEME
TIME_SYSTEM    = UTC
MEAN_ELEMENT_THEORY = SGP/SGP4

EPOCH          = 2026-03-31T14:06:26.503200
MEAN_MOTION    = 14.83021234
ECCENTRICITY   = .00002631
INCLINATION    = 98.0113
RA_OF_ASC_NODE = 119.0732
ARG_OF_PERICENTER = 358.8607
MEAN_ANOMALY   = 1.2606

EPHEMERIS_TYPE = 0
CLASSIFICATION_TYPE = U
NORAD_CAT_ID   = 41038
ELEMENT_SET_NO = 999
REV_AT_EPOCH   = 55912
BSTAR          = .11775052E-3
MEAN_MOTION_DOT = .903E-5
MEAN_MOTION_DDOT = 0

CCSDS_OMM_VERS = 2.0
CREATION_DATE  = 
ORIGINATOR     = 

OBJECT_NAME    = ASTRO-H (HITOMI)
OBJECT_ID      = 2016-012A
CENTER_NAME    = EARTH
REF_FRAME      = TEME
TIME_SYSTEM    = UTC
MEAN_ELEMENT_THEORY = SGP/SGP4

EPOCH          = 2026-03-31T12:18:48.920544
MEAN_MOTION    = 15.10144744
ECCENTRICITY   = .00096355
INCLINATION    = 30.9993
RA_OF_ASC_NODE = 215.7004
ARG_OF_PERICENTER = 191.3983
MEAN_ANOMALY   = 168.6437

EPHEMERIS_TYPE = 0
CLASSIFICATION_TYPE = U
NORAD_CAT_ID   = 41337
ELEMENT_SET_NO = 999
REV_AT_EPOCH   = 55553
BSTAR          = .24738692E-3
MEAN_MOTION_DOT = .4234E-4
MEAN_MOTION_DDOT = 0

CCSDS_OMM_VERS = 2.0
CREATION_DATE  = 
ORIGINATOR     = 

OBJECT_NAME    = HXMT (HUIYAN)
OBJECT_ID      = 2017-034A
CENTER_NAME    = EARTH
REF_FRAME      = TEME
TIME_SYSTEM    = UTC
MEAN_ELEMENT_THEORY = SGP/SGP4

EPOCH          = 2026-03-31T11:55:58.478304
MEAN_MOTION    = 15.17739651
ECCENTRICITY   = .00315031
INCLINATION    = 43.0133
RA_OF_ASC_NODE = 255.4062
ARG_OF_PERICENTER = 10.1677
MEAN_ANOMALY   = 349.9803

EPHEMERIS_TYPE = 0
CLASSIFICATION_TYPE = U
NORAD_CAT_ID   = 42758
ELEMENT_SET_NO = 999
REV_AT_EPOCH   = 48585
BSTAR          = .34319173E-3
MEAN_MOTION_DOT = .6905E-4
MEAN_MOTION_DDOT = 0

CCSDS_OMM_VERS = 2.0
CREATION_DATE  = 
ORIGINATOR     = 

OBJECT_NAME    = SAOCOM 1A
OBJECT_ID      = 2018-076A
CENTER_NAME    = EARTH
REF_FRAME      = TEME
TIME_SYSTEM    = UTC
MEAN_ELEMENT_THEORY = SGP/SGP4

EPOCH          = 2026-03-31T15:12:49.844736
MEAN_MOTION    = 14.82166034
ECCENTRICITY   = .00014782
INCLINATION    = 97.8900
RA_OF_ASC_NODE = 278.4970
ARG_OF_PERICENTER = 85.5063
MEAN_ANOMALY   = 274.6319

EPHEMERIS_TYPE = 0
CLASSIFICATION_TYPE = U
NORAD_CAT_ID   = 43641
ELEMENT_SET_NO = 999
REV_AT_EPOCH   = 40461
BSTAR          = .10830285E-3
MEAN_MOTION_DOT = .81E-5
MEAN_MOTION_DDOT = 0

CCSDS_OMM_VERS = 2.0
CREATION_DATE  = 
ORIGINATOR     = 

OBJECT_NAME    = H-2A R/B
OBJECT_ID      = 2018-084L
CENTER_NAME    = EARTH
REF_FRAME      = TEME
TIME_SYSTEM    = UTC
MEAN_ELEMENT_THEORY = SGP/SGP4

EPOCH          = 2026-03-31T08:15:53.661312
MEAN_MOTION    = 15.42280553
ECCENTRICITY   = .00235817
INCLINATION    = 98.8701
RA_OF_ASC_NODE = 312.3741
ARG_OF_PERICENTER = 309.5031
MEAN_ANOMALY   = 50.4126

EPHEMERIS_TYPE = 0
CLASSIFICATION_TYPE = U
NORAD_CAT_ID   = 43682
ELEMENT_SET_NO = 999
REV_AT_EPOCH   = 40911
BSTAR          = .56595592E-3
MEAN_MOTION_DOT = .2453E-3
MEAN_MOTION_DDOT = 0

CCSDS_OMM_VERS = 2.0
CREATION_DATE  = 
ORIGINATOR     = 

OBJECT_NAME    = SAOCOM 1B
OBJECT_ID      = 2020-059A
CENTER_NAME    = EARTH
REF_FRAME      = TEME
TIME_SYSTEM    = UTC
MEAN_ELEMENT_THEORY = SGP/SGP4

EPOCH          = 2026-03-31T14:20:36.852000
MEAN_MOTION    = 14.82158772
ECCENTRICITY   = .00014588
INCLINATION    = 97.8887
RA_OF_ASC_NODE = 277.5582
ARG_OF_PERICENTER = 87.2156
MEAN_ANOMALY   = 272.9224

EPHEMERIS_TYPE = 0
CLASSIFICATION_TYPE = U
NORAD_CAT_ID   = 46265
ELEMENT_SET_NO = 999
REV_AT_EPOCH   = 30199
BSTAR          = .63112552E-4
MEAN_MOTION_DOT = .45E-5
MEAN_MOTION_DDOT = 0

CCSDS_OMM_VERS = 2.0
CREATION_DATE  = 
ORIGINATOR     = 

OBJECT_NAME    = CSS (TIANHE)
OBJECT_ID      = 2021-035A
CENTER_NAME    = EARTH
REF_FRAME      = TEME
TIME_SYSTEM    = UTC
MEAN_ELEMENT_THEORY = SGP/SGP4

EPOCH          = 2026-03-31T09:37:29.057664
MEAN_MOTION    = 15.61753153
ECCENTRICITY   = .00037027
INCLINATION    = 41.4667
RA_OF_ASC_NODE = 75.9454
ARG_OF_PERICENTER = 78.2668
MEAN_ANOMALY   = 281.8587

EPHEMERIS_TYPE = 0
CLASSIFICATION_TYPE = U
NORAD_CAT_ID   = 48274
ELEMENT_SET_NO = 999
REV_AT_EPOCH   = 28100
BSTAR          = .31583773E-3
MEAN_MOTION_DOT = .27868E-3
MEAN_MOTION_DDOT = 0

CCSDS_OMM_VERS = 2.0
CREATION_DATE  = 
ORIGINATOR     = 

OBJECT_NAME    = COSMOS 2550
OBJECT_ID      = 2021-056A
CENTER_NAME    = EARTH
REF_FRAME      = TEME
TIME_SYSTEM    = UTC
MEAN_ELEMENT_THEORY = SGP/SGP4

EPOCH          = 2026-03-28T11:49:31.757952
MEAN_MOTION    = 15.33828274
ECCENTRICITY   = .000844
INCLINATION    = 67.1421
RA_OF_ASC_NODE = 344.0047
ARG_OF_PERICENTER = 269.5686
MEAN_ANOMALY   = 90.4502

EPHEMERIS_TYPE = 0
CLASSIFICATION_TYPE = U
NORAD_CAT_ID   = 48865
ELEMENT_SET_NO = 999
REV_AT_EPOCH   = 26634
BSTAR          = .189685E-6
MEAN_MOTION_DOT = -.186E-5
MEAN_MOTION_DDOT = 0

CCSDS_OMM_VERS = 2.0
CREATION_DATE  = 
ORIGINATOR     = 

OBJECT_NAME    = CZ-2C R/B
OBJECT_ID      = 2022-058K
CENTER_NAME    = EARTH
REF_FRAME      = TEME
TIME_SYSTEM    = UTC
MEAN_ELEMENT_THEORY = SGP/SGP4

EPOCH          = 2026-03-31T11:44:15.957312
MEAN_MOTION    = 15.55902666
ECCENTRICITY   = .0041364
INCLINATION    = 50.1881
RA_OF_ASC_NODE = 206.0166
ARG_OF_PERICENTER = 294.3571
MEAN_ANOMALY   = 65.3085

EPHEMERIS_TYPE = 0
CLASSIFICATION_TYPE = U
NORAD_CAT_ID   = 52794
ELEMENT_SET_NO = 999
REV_AT_EPOCH   = 21352
BSTAR          = .61341493E-3
MEAN_MOTION_DOT = .44842E-3
MEAN_MOTION_DDOT = 0

CCSDS_OMM_VERS = 2.0
CREATION_DATE  = 
ORIGINATOR     = 

OBJECT_NAME    = CZ-2C R/B
OBJECT_ID      = 2022-132E
CENTER_NAME    = EARTH
REF_FRAME      = TEME
TIME_SYSTEM    = UTC
MEAN_ELEMENT_THEORY = SGP/SGP4

EPOCH          = 2026-03-31T11:04:24.584160
MEAN_MOTION    = 15.63914432
ECCENTRICITY   = .00169619
INCLINATION    = 97.2949
RA_OF_ASC_NODE = 94.4728
ARG_OF_PERICENTER = 19.5849
MEAN_ANOMALY   = 340.6058

EPHEMERIS_TYPE = 0
CLASSIFICATION_TYPE = U
NORAD_CAT_ID   = 54039
ELEMENT_SET_NO = 999
REV_AT_EPOCH   = 19377
BSTAR          = .49554798E-3
MEAN_MOTION_DOT = .4696E-3
MEAN_MOTION_DDOT = 0

CCSDS_OMM_VERS = 2.0
CREATION_DATE  = 
ORIGINATOR     = 

OBJECT_NAME    = GSLV R/B
OBJECT_ID      = 2022-138AN
CENTER_NAME    = EARTH
REF_FRAME      = TEME
TIME_SYSTEM    = UTC
MEAN_ELEMENT_THEORY = SGP/SGP4

EPOCH          = 2026-03-31T10:44:53.509056
MEAN_MOTION    = 14.96911590
ECCENTRICITY   = .00239597
INCLINATION    = 87.3858
RA_OF_ASC_NODE = 159.0779
ARG_OF_PERICENTER = 75.0766
MEAN_ANOMALY   = 285.3116

EPHEMERIS_TYPE = 0
CLASSIFICATION_TYPE = U
NORAD_CAT_ID   = 54149
ELEMENT_SET_NO = 999
REV_AT_EPOCH   = 18718
BSTAR          = .30773338E-3
MEAN_MOTION_DOT = .358E-4
MEAN_MOTION_DDOT = 0

